[
  {
    "OBJECT_NAME": "STARLINK-1579",
    "OBJECT_ID": "2020-055BJ",
    "EPOCH": "2026-03-18T03:24:31.936320",
    "MEAN_MOTION": 15.06392232,
    "ECCENTRICITY": 0.0001336,
    "INCLINATION": 53.0557,
    "RA_OF_ASC_NODE": 58.6651,
    "ARG_OF_PERICENTER": 93.445,
    "MEAN_ANOMALY": 266.6692,
    "EPHEMERIS_TYPE": 0,
    "CLASSIFICATION_TYPE": "U",
    "NORAD_CAT_ID": 46083,
    "ELEMENT_SET_NO": 999,
    "REV_AT_EPOCH": 31057,
    "BSTAR": 9.0442e-05,
    "MEAN_MOTION_DOT": 1.066e-05,
    "MEAN_MOTION_DDOT": 0
  },
  {
    "OBJECT_NAME": "STARLINK-1807",
    "OBJECT_ID": "2020-073AN",
    "EPOCH": "2026-03-18T13:36:56.042784",
    "MEAN_MOTION": 15.2458174,
    "ECCENTRICITY": 0.0002323,
    "INCLINATION": 53.0619,
    "RA_OF_ASC_NODE": 187.4314,
    "ARG_OF_PERICENTER": 199.0448,
    "MEAN_ANOMALY": 161.0462,
    "EPHEMERIS_TYPE": 0,
    "CLASSIFICATION_TYPE": "U",
    "NORAD_CAT_ID": 46706,
    "ELEMENT_SET_NO": 999,
    "REV_AT_EPOCH": 29867,
    "BSTAR": 0.0018023,
    "MEAN_MOTION_DOT": 0.00044935,
    "MEAN_MOTION_DDOT": 0
  },
  {
    "OBJECT_NAME": "STARLINK-1812",
    "OBJECT_ID": "2020-088E",
    "EPOCH": "2026-03-18T11:30:25.266240",
    "MEAN_MOTION": 15.15706924,
    "ECCENTRICITY": 0.0001686,
    "INCLINATION": 53.0766,
    "RA_OF_ASC_NODE": 259.6626,
    "ARG_OF_PERICENTER": 159.2902,
    "MEAN_ANOMALY": 200.8159,
    "EPHEMERIS_TYPE": 0,
    "CLASSIFICATION_TYPE": "U",
    "NORAD_CAT_ID": 47126,
    "ELEMENT_SET_NO": 999,
    "REV_AT_EPOCH": 29320,
    "BSTAR": 0.0015882,
    "MEAN_MOTION_DOT": 0.00030435,
    "MEAN_MOTION_DDOT": 0
  },
  {
    "OBJECT_NAME": "STARLINK-2047",
    "OBJECT_ID": "2021-005G",
    "EPOCH": "2026-03-18T09:54:14.208480",
    "MEAN_MOTION": 15.29372197,
    "ECCENTRICITY": 0.0001573,
    "INCLINATION": 53.1554,
    "RA_OF_ASC_NODE": 330.4841,
    "ARG_OF_PERICENTER": 94.5693,
    "MEAN_ANOMALY": 265.5487,
    "EPHEMERIS_TYPE": 0,
    "CLASSIFICATION_TYPE": "U",
    "NORAD_CAT_ID": 47355,
    "ELEMENT_SET_NO": 999,
    "REV_AT_EPOCH": 28508,
    "BSTAR": 0.00021035,
    "MEAN_MOTION_DOT": 5.722e-05,
    "MEAN_MOTION_DDOT": 0
  },
  {
    "OBJECT_NAME": "STARLINK-2049",
    "OBJECT_ID": "2021-005H",
    "EPOCH": "2026-03-18T01:29:48.571008",
    "MEAN_MOTION": 15.06390691,
    "ECCENTRICITY": 0.00015084,
    "INCLINATION": 53.056,
    "RA_OF_ASC_NODE": 354.0339,
    "ARG_OF_PERICENTER": 96.6575,
    "MEAN_ANOMALY": 263.4585,
    "EPHEMERIS_TYPE": 0,
    "CLASSIFICATION_TYPE": "U",
    "NORAD_CAT_ID": 47356,
    "ELEMENT_SET_NO": 999,
    "REV_AT_EPOCH": 28472,
    "BSTAR": 0.00015394389,
    "MEAN_MOTION_DOT": 2.012e-05,
    "MEAN_MOTION_DDOT": 0
  },
  {
    "OBJECT_NAME": "STARLINK-2050",
    "OBJECT_ID": "2021-005J",
    "EPOCH": "2026-03-18T14:00:00.999360",
    "MEAN_MOTION": 15.29350813,
    "ECCENTRICITY": 0.0001654,
    "INCLINATION": 53.1573,
    "RA_OF_ASC_NODE": 21.1148,
    "ARG_OF_PERICENTER": 99.8422,
    "MEAN_ANOMALY": 135.1386,
    "EPHEMERIS_TYPE": 0,
    "CLASSIFICATION_TYPE": "U",
    "NORAD_CAT_ID": 47357,
    "ELEMENT_SET_NO": 999,
    "REV_AT_EPOCH": 573,
    "BSTAR": -0.0002007,
    "MEAN_MOTION_DOT": -6.142e-05,
    "MEAN_MOTION_DDOT": 0
  },
  {
    "OBJECT_NAME": "STARLINK-2055",
    "OBJECT_ID": "2021-005K",
    "EPOCH": "2026-03-18T01:44:21.200640",
    "MEAN_MOTION": 15.06394132,
    "ECCENTRICITY": 0.00018384,
    "INCLINATION": 53.0556,
    "RA_OF_ASC_NODE": 353.9778,
    "ARG_OF_PERICENTER": 101.1056,
    "MEAN_ANOMALY": 259.014,
    "EPHEMERIS_TYPE": 0,
    "CLASSIFICATION_TYPE": "U",
    "NORAD_CAT_ID": 47358,
    "ELEMENT_SET_NO": 999,
    "REV_AT_EPOCH": 28472,
    "BSTAR": 0.00021043232,
    "MEAN_MOTION_DOT": 2.854e-05,
    "MEAN_MOTION_DDOT": 0
  },
  {
    "OBJECT_NAME": "STARLINK-2071",
    "OBJECT_ID": "2021-005N",
    "EPOCH": "2026-03-18T11:29:35.153376",
    "MEAN_MOTION": 15.06417834,
    "ECCENTRICITY": 0.000144,
    "INCLINATION": 53.0538,
    "RA_OF_ASC_NODE": 352.1627,
    "ARG_OF_PERICENTER": 79.9224,
    "MEAN_ANOMALY": 280.1927,
    "EPHEMERIS_TYPE": 0,
    "CLASSIFICATION_TYPE": "U",
    "NORAD_CAT_ID": 47361,
    "ELEMENT_SET_NO": 999,
    "REV_AT_EPOCH": 28478,
    "BSTAR": 0.00078323,
    "MEAN_MOTION_DOT": 0.00011409,
    "MEAN_MOTION_DDOT": 0
  }
]