STARLINK-1579           
1 46083U 20055BJ  26077.14203630  .00001066  00000+0  90442-4 0  9999
2 46083  53.0557  58.6651 0001336  93.4450 266.6692 15.06392232310573
STARLINK-1807           
1 46706U 20073AN  26077.56731531  .00044935  00000+0  18023-2 0  9998
2 46706  53.0619 187.4314 0002323 199.0448 161.0462 15.24581740298671
STARLINK-1812           
1 47126U 20088E   26077.47945910  .00030435  00000+0  15882-2 0  9999
2 47126  53.0766 259.6626 0001686 159.2902 200.8159 15.15706924293205
STARLINK-2047           
1 47355U 21005G   26077.41266445  .00005722  00000+0  21035-3 0  9995
2 47355  53.1554 330.4841 0001573  94.5693 265.5487 15.29372197285080
STARLINK-2049           
1 47356U 21005H   26077.06236772  .00002012  00000+0  15394-3 0  9997
2 47356  53.0560 354.0339 0001508  96.6575 263.4585 15.06390691284721
STARLINK-2050           
1 47357U 21005J   26077.58334490 -.00006142  00000+0 -20070-3 0  9998
2 47357  53.1573  21.1148 0001654  99.8422 135.1386 15.29350813  5738
STARLINK-2055           
1 47358U 21005K   26077.07246760  .00002854  00000+0  21043-3 0  9990
2 47358  53.0556 353.9778 0001838 101.1056 259.0140 15.06394132284727
STARLINK-2071           
1 47361U 21005N   26077.47887909  .00011409  00000+0  78323-3 0  9993
2 47361  53.0538 352.1627 0001440  79.9224 280.1927 15.06417834284782
